line1,line2,validFromUtcTime
1 00000U 00000E   26001.00000000  .00000000  00000-0  27772-4 0    01,2 00000  88.8959 135.3349 0010206 269.7195 127.6781 13.55332674    06,2026-01-01T00:00:00Z
1 00000U 00000E   26002.00000000  .00000000  00000-0  27772-4 0    02,2 00000  88.8959 135.2226 0010206 266.8092 326.8742 13.55332712    06,2026-01-02T00:00:00Z
